SBAF 311100Z 27003KT 8000 BKN009 OVC028 21/21 Q1019