SBAN 311100Z 07006KT 9999 FEW040 BKN080 20/17 Q1021