SBAR 311100Z 08012KT 9999 SCT023 SCT050 27/22 Q1015