SBAT 311115Z 00000KT 8000 SCT015 25/24 Q1015