SBBI 311100Z 05004KT 9999 -RA BKN006 BKN030 14/13 Q1020