SBBR 311100Z 06004KT 020V090 9999 VCSH SCT030 BKN066 22/17 Q1020