SBBV 311100Z 08006KT 9999 FEW030 SCT080 26/22 Q1013