SBCA 311100Z 21005KT CAVOK 17/13 Q1019