SBCC 311100Z 22004KT CAVOK 23/21 Q1015