SBCG 311100Z 16004KT 120V190 CAVOK 21/17 Q1017