SBCH 311100Z 00000KT 9999 BKN020 18/18 Q1018