SBCR 311100Z 21003KT CAVOK 20/16 Q1015