SBCT 311100Z 03003KT 010V070 9999 SCT005 OVC012 14/14 Q1020