SBEG 311100Z VRB02KT 9999 FEW008 FEW025TCU 23/22 Q1013