SBFZ 311100Z 12017KT 9999 BKN025 29/22 Q1014