SBGL 311100Z 13003KT 9999 FEW011 SCT030 OVC045 21/18 Q1018