SBGO 311100Z 04007KT CAVOK 24/18 Q1019