SBGR 311112Z 06010KT 9000 -RA SCT005 SCT040 BKN080 16/15 Q1020 RERA