SBJV 291300Z 10008KT 9000 FEW020 22/16 Q1018