SBMG 311100Z 12005KT 9999 FEW017 BKN023 20/17 Q1017