SBMN 311100Z 20003KT 150V250 9999 FEW007 SCT012 FEW025TCU 23/21 Q1013