SBMQ 311100Z 01009KT CAVOK 28/24 Q1013