SBNT 311100Z 12012KT 100V160 9999 SCT020 28/22 Q1015