SBPJ 311100Z 10003KT 9999 FEW040 29/23 Q1014