SBPP 311115Z 18005KT CAVOK 18/14 Q1018