SBPS 311100Z VRB02KT 9999 SCT015 BKN070 23/22 Q1018