SBPV 311100Z 33002KT 9999 SCT009 BKN030 22/21 Q1013