SBRF 311100Z 10009KT 9999 SCT025 28/21 Q1015