SBSC 311100Z 01005KT 5000 BR FEW003 SCT010 OVC030 20/19 Q1018