SBSG 311100Z 12004KT 070V190 9999 BKN020 26/23 Q1015