SBSJ 311131Z 05004KT 010V080 5000 -RA BKN009 OVC070 17/16 Q1019