SBSP 311100Z 04004KT 360V100 9000 -RA BKN007 BKN100 16/15 Q1020