SBTF 311115Z 00000KT CAVOK 24/23 Q1012