SBTT 311100Z 31002KT 9999 OVC006 23/21 Q1013