SBYS 311100Z 15005KT 120V180 9000 BKN010 BKN080 19/16 Q1019