SBAF 301400Z 09004KT 8000 SCT015 BKN020 OVC040 22/18 Q1018