SBCT 301400Z 11010KT 9999 FEW011 BKN014 13/10 Q1021