SBGL 301400Z 09006KT 9999 SCT009 SCT015 BKN040 20/17 Q1018