SBGR 301400Z 12008KT 9999 BKN026 20/13 Q1019