SBJV 301400Z 26004KT 5000 BR BKN010 OVC020 15/14 Q1021