SBSG 301400Z 14012KT 110V180 9999 SCT036 30/20 Q1014