SBSJ 301400Z 14005KT 9999 SCT020 23/08 Q1019